H1 CPF  1  DLR 2022 03 11 10  5702 technosat            
H2  1704205 6203    42829 2022 03 11 00 00 00 2022 03 18 00 00 00    60 1 1  0 0 0
H9
10 0 59653  28800.000000  0      -4971737.285       -718854.552       4840859.794
10 0 59653  28860.000000  0      -5282315.962       -657972.461       4510247.400
10 0 59653  28920.000000  0      -5570161.796       -591709.727       4160562.131
10 0 59653  28980.000000  0      -5834018.047       -520548.595       3793280.096
10 0 59653  29040.000000  0      -6072732.740       -445002.518       3409952.296
10 0 59653  29100.000000  0      -6285263.947       -365613.079       3012198.194
10 0 59653  29160.000000  0      -6470684.632       -282946.718       2601698.949
10 0 59653  29220.000000  0      -6628186.966       -197591.305       2180190.276
10 0 59653  29280.000000  0      -6757086.067       -110152.604       1749455.045
10 0 59653  29340.000000  0      -6856823.186        -21250.641       1311315.657
10 0 59653  29400.000000  0      -6926968.291         68484.039        867626.212
10 0 59653  29460.000000  0      -6967222.061        158414.169        420264.518
10 0 59653  29520.000000  0      -6977417.250        247899.634        -28876.014
10 0 59653  29580.000000  0      -6957519.413        336301.362       -477894.571
10 0 59653  29640.000000  0      -6907626.981        422985.199       -924891.168
10 0 59653  29700.000000  0      -6827970.677        507325.759      -1367974.828
10 0 59653  29760.000000  0      -6718912.355        588710.204      -1805271.650
10 0 59653  29820.000000  0      -6580943.335        666541.988      -2234932.824
10 0 59653  29880.000000  0      -6414682.120        740244.499      -2655142.659
10 0 59653  29940.000000  0      -6220871.376        809264.614      -3064126.468
10 0 59653  30000.000000  0      -6000374.245        873076.083      -3460158.111
10 0 59653  30060.000000  0      -5754170.234        931182.764      -3841567.213
10 0 59653  30120.000000  0      -5483350.610        983121.683      -4206746.181
10 0 59653  30180.000000  0      -5189113.283       1028465.914      -4554156.902
10 0 59653  30240.000000  0      -4872757.222       1066827.221      -4882337.102
10 0 59653  30300.000000  0      -4535676.467       1097858.503      -5189906.312
10 0 59653  30360.000000  0      -4179353.782       1121256.009      -5475571.456
10 0 59653  30420.000000  0      -3805353.974       1136761.306      -5738132.081
10 0 59653  30480.000000  0      -3415316.862       1144162.966      -5976485.187
10 0 59653  30540.000000  0      -3010949.971       1143297.987      -6189629.566
10 0 59653  30600.000000  0      -2594021.074       1134052.993      -6376669.762
10 0 59653  30660.000000  0      -2166350.429       1116365.206      -6536819.682
10 0 59653  30720.000000  0      -1729802.779       1090223.127      -6669405.634
10 0 59653  30780.000000  0      -1286279.323       1055666.900      -6773868.903
10 0 59653  30840.000000  0       -837709.564       1012788.423      -6849767.946
10 0 59653  30900.000000  0       -386043.065        961731.194      -6896780.112
10 0 59653  30960.000000  0         66758.781        902689.905      -6914702.951
10 0 59653  31020.000000  0        518731.055        835909.738      -6903455.210
10 0 59653  31080.000000  0        967913.775        761685.379      -6863077.384
10 0 59653  31140.000000  0       1412360.381        680359.767      -6793731.622
10 0 59653  31200.000000  0       1850146.037        592322.576      -6695701.157
10 0 59653  31260.000000  0       2279375.843        498008.427      -6569389.358
10 0 59653  31320.000000  0       2698193.050        397894.894      -6415318.353
10 0 59653  31380.000000  0       3104787.145        292500.231      -6234127.053
10 0 59653  31440.000000  0       3497401.646        182380.807      -6026568.766
10 0 59653  31500.000000  0       3874341.772         68128.317      -5793508.389
10 0 59653  31560.000000  0       4233981.847        -49633.181      -5535919.121
10 0 59653  31620.000000  0       4574772.546       -170250.443      -5254878.824
10 0 59653  31680.000000  0       4895247.924       -293044.464      -4951565.805
10 0 59653  31740.000000  0       5194032.022       -417314.076      -4627254.089
10 0 59653  31800.000000  0       5469845.096       -542339.697      -4283308.292
10 0 59653  31860.000000  0       5721509.467       -667387.242      -3921178.087
10 0 59653  31920.000000  0       5947954.949       -791712.164      -3542392.239
10 0 59653  31980.000000  0       6148223.803       -914563.624      -3148552.253
10 0 59653  32040.000000  0       6321475.210      -1035188.746      -2741325.646
10 0 59653  32100.000000  0       6466989.228      -1152836.916      -2322438.848
10 0 59653  32160.000000  0       6584170.157      -1266764.116      -1893669.775
10 0 59653  32220.000000  0       6672549.317      -1376237.267      -1456840.137
10 0 59653  32280.000000  0       6731787.202      -1480538.554      -1013807.491
10 0 59653  32340.000000  0       6761675.008      -1578969.686       -566457.126
10 0 59653  32400.000000  0       6762135.566      -1670856.111       -116693.786
10 0 59653  32460.000000  0       6733223.627      -1755551.135        333566.790
10 0 59653  32520.000000  0       6675125.410      -1832439.885        782406.402
10 0 59653  32580.000000  0       6588157.471      -1900943.102       1227912.862
10 0 59653  32640.000000  0       6472765.034      -1960520.809       1668188.445
10 0 59653  32700.000000  0       6329519.634      -2010675.776       2101358.350
10 0 59653  32760.000000  0       6159116.106      -2050956.691       2525578.993
10 0 59653  32820.000000  0       5962368.986      -2080961.098       2939046.115
10 0 59653  32880.000000  0       5740208.301      -2100338.103       3340002.665
10 0 59653  32940.000000  0       5493674.845      -2108790.799       3726746.401
10 0 59653  33000.000000  0       5223914.950      -2106078.395       4097637.199
10 0 59653  33060.000000  0       4932174.805      -2092018.020       4451104.010
10 0 59653  33120.000000  0       4619794.419      -2066486.214       4785651.488
10 0 59653  33180.000000  0       4288201.173      -2029420.123       5099866.334
10 0 59653  33240.000000  0       3938902.924      -1980818.405       5392423.204
10 0 59653  33300.000000  0       3573480.773      -1920741.792       5662090.159
10 0 59653  33360.000000  0       3193581.576      -1849313.293       5907733.589
10 0 59653  33420.000000  0       2800910.322      -1766718.091       6128322.693
10 0 59653  33480.000000  0       2397222.308      -1673203.151       6322933.584
10 0 59653  33540.000000  0       1984315.112      -1569076.520       6490752.888
10 0 59653  33600.000000  0       1564020.481      -1454706.294       6631080.878
10 0 59653  33660.000000  0       1138196.099      -1330519.268       6743334.154
10 0 59653  33720.000000  0        708717.328      -1196999.282       6827047.762
10 0 59653  33780.000000  0        277468.979      -1054685.286       6881876.881
10 0 59653  33840.000000  0       -153662.932       -904169.114       6907598.013
10 0 59653  33900.000000  0       -582799.309       -746093.017       6904109.698
10 0 59653  33960.000000  0      -1008076.078       -581146.934       6871432.838
10 0 59653  34020.000000  0      -1427652.200       -410065.462       6809710.493
10 0 59653  34080.000000  0      -1839717.505       -233624.604       6719207.206
10 0 59653  34140.000000  0      -2242500.395        -52638.292       6600307.924
10 0 59653  34200.000000  0      -2634275.392        132045.332       6453516.442
10 0 59653  34260.000000  0      -3013370.470        319547.830       6279453.368
10 0 59653  34320.000000  0      -3378174.165        508964.555       6078853.669
10 0 59653  34380.000000  0      -3727142.481        699368.941       5852563.746
10 0 59653  34440.000000  0      -4058805.480        889816.918       5601538.011
10 0 59653  34500.000000  0      -4371773.554       1079351.498       5326835.056
10 0 59653  34560.000000  0      -4664743.365       1267007.502       5029613.384
10 0 59653  34620.000000  0      -4936503.437       1451816.386       4711126.697
10 0 59653  34680.000000  0      -5185939.334       1632811.121       4372718.735
10 0 59653  34740.000000  0      -5412038.378       1809031.138       4015817.741
10 0 59653  34800.000000  0      -5613893.931       1979527.298       3641930.566
10 0 59653  34860.000000  0      -5790709.222       2143366.869       3252636.418
10 0 59653  34920.000000  0      -5941800.701       2299638.471       2849580.278
10 0 59653  34980.000000  0      -6066600.873       2447456.987       2434465.984
10 0 59653  35040.000000  0      -6164660.629       2585968.387       2009049.045
10 0 59653  35100.000000  0      -6235651.044       2714354.465       1575129.143
10 0 59653  35160.000000  0      -6279364.548       2831837.430       1134542.370
10 0 59653  35220.000000  0      -6295715.481       2937684.293        689153.334
10 0 59653  35280.000000  0      -6284740.118       3031211.080        240847.175
10 0 59653  35340.000000  0      -6246596.148       3111786.844       -208478.599
10 0 59653  35400.000000  0      -6181561.485       3178837.395       -656922.320
10 0 59653  35460.000000  0      -6090032.592       3231848.755      -1102586.337
10 0 59653  35520.000000  0      -5972522.239       3270370.351      -1543585.252
10 0 59653  35580.000000  0      -5829656.679       3294017.952      -1978054.106
10 0 59653  35640.000000  0      -5662172.180       3302476.187      -2404156.451
10 0 59653  35700.000000  0      -5470911.144       3295500.720      -2820092.150
10 0 59653  35760.000000  0      -5256817.783       3272920.111      -3224105.084
10 0 59653  35820.000000  0      -5020933.253       3234637.311      -3614490.631
10 0 59653  35880.000000  0      -4764390.375       3180630.764      -3989602.794
10 0 59653  35940.000000  0      -4488408.033       3110955.159      -4347861.059
99
